{"type": "FeatureCollection", "features": [ {"type": "Feature", "properties": {"norad_id": 66540, "name": "STARLINK-35818", "group": "last-30-days", "lat": 35.18751910830604, "lon": -148.42283086802593, "alt_km": 387.7744612629549, "timestamp": "2025-12-08T03:50:05.783812+00:00", "meta": {"OBJECT_NAME": "STARLINK-35818", "OBJECT_ID": "2025-265AA", "EPOCH": "2025-12-07T06:00:04.999968", "MEAN_MOTION": 15.62254777, "ECCENTRICITY": 0.00014592, "INCLINATION": 43.0006, "RA_OF_ASC_NODE": 86.1472, "ARG_OF_PERICENTER": 279.0167, "MEAN_ANOMALY": 126.9404, "EPHEMERIS_TYPE": 0, "CLASSIFICATION_TYPE": "U", "NORAD_CAT_ID": 66540, "ELEMENT_SET_NO": 999, "REV_AT_EPOCH": 411, "BSTAR": -0.024550704, "MEAN_MOTION_DOT": -0.01960578, "MEAN_MOTION_DDOT": 0}, "tle": {"line1": "1 66540U 25265AA  25341.25005787 -.01960578  00000+0 -24551-1 0  9995", "line2": "2 66540  43.0006  86.1472 0001459 279.0167 126.9404 15.62254777  4113"}}, "geometry": {"type": "Point", "coordinates": [-148.42283086802593, 35.18751910830604]}}, {"type": "Feature", "properties": {"norad_id": 66541, "name": "STARLINK-35796", "group": "last-30-days", "lat": 34.313325440168235, "lon": -146.34579820847918, "alt_km": 387.9140047252022, "timestamp": "2025-12-08T03:50:05.783822+00:00", "meta": {"OBJECT_NAME": "STARLINK-35796", "OBJECT_ID": "2025-265AB", "EPOCH": "2025-12-07T06:00:04.999968", "MEAN_MOTION": 15.62255206, "ECCENTRICITY": 0.0001465, "INCLINATION": 43.0006, "RA_OF_ASC_NODE": 86.1421, "ARG_OF_PERICENTER": 280.3917, "MEAN_ANOMALY": 127.481, "EPHEMERIS_TYPE": 0, "CLASSIFICATION_TYPE": "U", "NORAD_CAT_ID": 66541, "ELEMENT_SET_NO": 999, "REV_AT_EPOCH": 411, "BSTAR": -0.024542977, "MEAN_MOTION_DOT": -0.01960069, "MEAN_MOTION_DDOT": 0}, "tle": {"line1": "1 66541U 25265AB  25341.25005787 -.01960069  00000+0 -24543-1 0  9992", "line2": "2 66541  43.0006  86.1421 0001465 280.3917 127.4810 15.62255206  4118"}}, "geometry": {"type": "Point", "coordinates": [-146.34579820847918, 34.313325440168235]}}, {"type": "Feature", "properties": {"norad_id": 66542, "name": "STARLINK-35833", "group": "last-30-days", "lat": 33.405931173366895, "lon": -144.31421259419275, "alt_km": 388.09839050861956, "timestamp": "2025-12-08T03:50:05.783834+00:00", "meta": {"OBJECT_NAME": "STARLINK-35833", "OBJECT_ID": "2025-265AC", "EPOCH": "2025-12-07T06:00:04.999968", "MEAN_MOTION": 15.62255081, "ECCENTRICITY": 0.00015049, "INCLINATION": 43.0007, "RA_OF_ASC_NODE": 86.1379, "ARG_OF_PERICENTER": 283.0119, "MEAN_ANOMALY": 126.7775, "EPHEMERIS_TYPE": 0, "CLASSIFICATION_TYPE": "U", "NORAD_CAT_ID": 66542, "ELEMENT_SET_NO": 999, "REV_AT_EPOCH": 411, "BSTAR": -0.024544906, "MEAN_MOTION_DOT": -0.01960225, "MEAN_MOTION_DDOT": 0}, "tle": {"line1": "1 66542U 25265AC  25341.25005787 -.01960225  00000+0 -24545-1 0  9999", "line2": "2 66542  43.0007  86.1379 0001504 283.0119 126.7775 15.62255081  4113"}}, "geometry": {"type": "Point", "coordinates": [-144.31421259419275, 33.405931173366895]}}, {"type": "Feature", "properties": {"norad_id": 66543, "name": "STARLINK-35315", "group": "last-30-days", "lat": 32.470091777752, "lon": -142.3352079834544, "alt_km": 388.18749883821874, "timestamp": "2025-12-08T03:50:05.783867+00:00", "meta": {"OBJECT_NAME": "STARLINK-35315", "OBJECT_ID": "2025-265AD", "EPOCH": "2025-12-07T06:00:04.999968", "MEAN_MOTION": 15.622566, "ECCENTRICITY": 0.00014596, "INCLINATION": 43.0007, "RA_OF_ASC_NODE": 86.1326, "ARG_OF_PERICENTER": 279.5445, "MEAN_ANOMALY": 132.1634, "EPHEMERIS_TYPE": 0, "CLASSIFICATION_TYPE": "U", "NORAD_CAT_ID": 66543, "ELEMENT_SET_NO": 999, "REV_AT_EPOCH": 400, "BSTAR": -0.024595598, "MEAN_MOTION_DOT": -0.01963856, "MEAN_MOTION_DDOT": 0}, "tle": {"line1": "1 66543U 25265AD  25341.25005787 -.01963856  00000+0 -24596-1 0  9999", "line2": "2 66543  43.0007  86.1326 0001459 279.5445 132.1634 15.62256600  4008"}}, "geometry": {"type": "Point", "coordinates": [-142.3352079834544, 32.470091777752]}}, {"type": "Feature", "properties": {"norad_id": 66544, "name": "STARLINK-35728", "group": "last-30-days", "lat": 31.49773401962439, "lon": -140.38601305819606, "alt_km": 388.32350458114433, "timestamp": "2025-12-08T03:50:05.783879+00:00", "meta": {"OBJECT_NAME": "STARLINK-35728", "OBJECT_ID": "2025-265AE", "EPOCH": "2025-12-07T06:00:04.999968", "MEAN_MOTION": 15.62257281, "ECCENTRICITY": 0.00014625, "INCLINATION": 43.0003, "RA_OF_ASC_NODE": 86.1279, "ARG_OF_PERICENTER": 279.6101, "MEAN_ANOMALY": 134.0132, "EPHEMERIS_TYPE": 0, "CLASSIFICATION_TYPE": "U", "NORAD_CAT_ID": 66544, "ELEMENT_SET_NO": 999, "REV_AT_EPOCH": 411, "BSTAR": -0.024585615, "MEAN_MOTION_DOT": -0.01963204, "MEAN_MOTION_DDOT": 0}, "tle": {"line1": "1 66544U 25265AE  25341.25005787 -.01963204  00000+0 -24586-1 0  9996", "line2": "2 66544  43.0003  86.1279 0001462 279.6101 134.0132 15.62257281  4118"}}, "geometry": {"type": "Point", "coordinates": [-140.38601305819606, 31.49773401962439]}}, {"type": "Feature", "properties": {"norad_id": 66545, "name": "SHIJIAN-30A", "group": "last-30-days", "lat": 50.15217700680608, "lon": 103.65900883515233, "alt_km": 517.2743008996122, "timestamp": "2025-12-08T03:50:05.783890+00:00", "meta": {"OBJECT_NAME": "SHIJIAN-30A", "OBJECT_ID": "2025-266A", "EPOCH": "2025-12-07T13:08:33.155808", "MEAN_MOTION": 15.15493602, "ECCENTRICITY": 0.0012808, "INCLINATION": 51.7997, "RA_OF_ASC_NODE": 357.1855, "ARG_OF_PERICENTER": 337.7155, "MEAN_ANOMALY": 22.3263, "EPHEMERIS_TYPE": 0, "CLASSIFICATION_TYPE": "U", "NORAD_CAT_ID": 66545, "ELEMENT_SET_NO": 999, "REV_AT_EPOCH": 279, "BSTAR": 0.00084449, "MEAN_MOTION_DOT": 0.00015947, "MEAN_MOTION_DDOT": 0}, "tle": {"line1": "1 66545U 25266A   25341.54760597  .00015947  00000+0  84449-3 0  9992", "line2": "2 66545  51.7997 357.1855 0012808 337.7155  22.3263 15.15493602  2792"}}, "geometry": {"type": "Point", "coordinates": [103.65900883515233, 50.15217700680608]}}, {"type": "Feature", "properties": {"norad_id": 66546, "name": "SHIJIAN-30B", "group": "last-30-days", "lat": 51.049333719372164, "lon": 97.3579928137872, "alt_km": 515.2336487479151, "timestamp": "2025-12-08T03:50:05.783900+00:00", "meta": {"OBJECT_NAME": "SHIJIAN-30B", "OBJECT_ID": "2025-266B", "EPOCH": "2025-12-07T13:09:40.995360", "MEAN_MOTION": 15.15578801, "ECCENTRICITY": 0.0010476, "INCLINATION": 51.7979, "RA_OF_ASC_NODE": 357.188, "ARG_OF_PERICENTER": 340.7873, "MEAN_ANOMALY": 19.2707, "EPHEMERIS_TYPE": 0, "CLASSIFICATION_TYPE": "U", "NORAD_CAT_ID": 66546, "ELEMENT_SET_NO": 999, "REV_AT_EPOCH": 279, "BSTAR": 0.00095687, "MEAN_MOTION_DOT": 0.0001815, "MEAN_MOTION_DDOT": 0}, "tle": {"line1": "1 66546U 25266B   25341.54839115  .00018150  00000+0  95687-3 0  9991", "line2": "2 66546  51.7979 357.1880 0010476 340.7873  19.2707 15.15578801  2794"}}, "geometry": {"type": "Point", "coordinates": [97.3579928137872, 51.049333719372164]}}, {"type": "Feature", "properties": {"norad_id": 66547, "name": "SHIJIAN-30C", "group": "last-30-days", "lat": 51.56390751208411, "lon": 91.44931913976377, "alt_km": 515.8845666371071, "timestamp": "2025-12-08T03:50:05.783912+00:00", "meta": {"OBJECT_NAME": "SHIJIAN-30C", "OBJECT_ID": "2025-266C", "EPOCH": "2025-12-07T13:10:40.242432", "MEAN_MOTION": 15.15593743, "ECCENTRICITY": 0.0011387, "INCLINATION": 51.7989, "RA_OF_ASC_NODE": 357.1936, "ARG_OF_PERICENTER": 333.0212, "MEAN_ANOMALY": 27.0171, "EPHEMERIS_TYPE": 0, "CLASSIFICATION_TYPE": "U", "NORAD_CAT_ID": 66547, "ELEMENT_SET_NO": 999, "REV_AT_EPOCH": 279, "BSTAR": 0.00085903, "MEAN_MOTION_DOT": 0.00016268, "MEAN_MOTION_DDOT": 0}, "tle": {"line1": "1 66547U 25266C   25341.54907688  .00016268  00000+0  85903-3 0  9991", "line2": "2 66547  51.7989 357.1936 0011387 333.0212  27.0171 15.15593743  2796"}}, "geometry": {"type": "Point", "coordinates": [91.44931913976377, 51.56390751208411]}}, {"type": "Feature", "properties": {"norad_id": 66548, "name": "CZ-2C R/B", "group": "last-30-days", "lat": -2.5111311437164217, "lon": -8.865536406576007, "alt_km": 531.1820909899598, "timestamp": "2025-12-08T03:50:05.783922+00:00", "meta": {"OBJECT_NAME": "CZ-2C R/B", "OBJECT_ID": "2025-266D", "EPOCH": "2025-12-07T07:28:12.483840", "MEAN_MOTION": 15.3000988, "ECCENTRICITY": 0.00842761, "INCLINATION": 52.0567, "RA_OF_ASC_NODE": 357.1384, "ARG_OF_PERICENTER": 154.5442, "MEAN_ANOMALY": 205.9732, "EPHEMERIS_TYPE": 0, "CLASSIFICATION_TYPE": "U", "NORAD_CAT_ID": 66548, "ELEMENT_SET_NO": 999, "REV_AT_EPOCH": 278, "BSTAR": 0.00053002711, "MEAN_MOTION_DOT": 0.00017051, "MEAN_MOTION_DDOT": 0}, "tle": {"line1": "1 66548U 25266D   25341.31125560  .00017051  00000+0  53003-3 0  9995", "line2": "2 66548  52.0567 357.1384 0084276 154.5442 205.9732 15.30009880  2788"}}, "geometry": {"type": "Point", "coordinates": [-8.865536406576007, -2.5111311437164217]}}, {"type": "Feature", "properties": {"norad_id": 66549, "name": "SHIJIAN-28", "group": "last-30-days", "lat": -0.8946774459155085, "lon": -91.07246559946663, "alt_km": 34514.206952010136, "timestamp": "2025-12-08T03:50:05.783936+00:00", "meta": {"OBJECT_NAME": "SHIJIAN-28", "OBJECT_ID": "2025-277A", "EPOCH": "2025-11-30T18:06:43.124256", "MEAN_MOTION": 2.28019775, "ECCENTRICITY": 0.7300519, "INCLINATION": 14.4344, "RA_OF_ASC_NODE": 275.4056, "ARG_OF_PERICENTER": 179.5026, "MEAN_ANOMALY": 182.358, "EPHEMERIS_TYPE": 0, "CLASSIFICATION_TYPE": "U", "NORAD_CAT_ID": 66549, "ELEMENT_SET_NO": 999, "REV_AT_EPOCH": 4, "BSTAR": 0.00062085, "MEAN_MOTION_DOT": 6.315e-05, "MEAN_MOTION_DDOT": 0}, "tle": {"line1": "1 66549U 25277A   25334.75466579  .00006315  00000+0  62085-3 0  9997", "line2": "2 66549  14.4344 275.4056 7300519 179.5026 182.3580  2.28019775    48"}}, "geometry": {"type": "Point", "coordinates": [-91.07246559946663, -0.8946774459155085]}}]}